{
    "links": {
        "self": "http://www.neowsapp.com/rest/v1/neo/54051181?api_key=iIulBulltgU6a56xZRHN4H3l9WmuAYTsLGpBGhQ2"
    },
    "id": "54051181",
    "neo_reference_id": "54051181",
    "name": "(2020 QJ1)",
    "designation": "2020 QJ1",
    "nasa_jpl_url": "http://ssd.jpl.nasa.gov/sbdb.cgi?sstr=54051181",
    "absolute_magnitude_h": 24.843,
    "estimated_diameter": {
        "kilometers": {
            "estimated_diameter_min": 0.0285729431,
            "estimated_diameter_max": 0.0638910431
        },
        "meters": {
            "estimated_diameter_min": 28.5729431176,
            "estimated_diameter_max": 63.8910431283
        },
        "miles": {
            "estimated_diameter_min": 0.0177543982,
            "estimated_diameter_max": 0.0397000414
        },
        "feet": {
            "estimated_diameter_min": 93.7432546981,
            "estimated_diameter_max": 209.616289937
        }
    },
    "is_potentially_hazardous_asteroid": false,
    "close_approach_data": [
        {
            "close_approach_date": "2020-08-28",
            "close_approach_date_full": "2020-Aug-28 07:46",
            "epoch_date_close_approach": 1598600760000,
            "relative_velocity": {
                "kilometers_per_second": "3.6294499604",
                "kilometers_per_hour": "13066.0198576118",
                "miles_per_hour": "8118.7166165255"
            },
            "miss_distance": {
                "astronomical": "0.1210459609",
                "lunar": "47.0868787901",
                "kilometers": "18108217.922743283",
                "miles": "11251924.8585039854"
            },
            "orbiting_body": "Earth"
        }
    ],
    "orbital_data": {
        "orbit_id": "1",
        "orbit_determination_date": "2020-08-19 00:12:04",
        "first_observation_date": "2020-08-15",
        "last_observation_date": "2020-08-19",
        "data_arc_in_days": 4,
        "observations_used": 14,
        "orbit_uncertainty": "8",
        "minimum_orbit_intersection": ".115943",
        "jupiter_tisserand_invariant": "5.265",
        "epoch_osculation": "2459078.5",
        "eccentricity": ".06604221256030582",
        "semi_major_axis": "1.206964024252783",
        "inclination": "7.061843329820764",
        "ascending_node_longitude": "151.3112019094409",
        "orbital_period": "484.3283765765917",
        "perihelion_distance": "1.127253449610439",
        "perihelion_argument": "180.7081032504223",
        "aphelion_distance": "1.286674598895128",
        "perihelion_time": "2459084.360008184892",
        "mean_anomaly": "355.6442714311465",
        "mean_motion": ".7432973523967569",
        "equinox": "J2000",
        "orbit_class": {
            "orbit_class_type": "AMO",
            "orbit_class_description": "Near-Earth asteroid orbits similar to that of 1221 Amor",
            "orbit_class_range": "1.017 AU < q (perihelion) < 1.3 AU"
        }
    },
    "is_sentry_object": false
}